NORAD_CAT_ID,OBJECT_NAME,OBJECT_TYPE,EPOCH,MEAN_MOTION,ECCENTRICITY,INCLINATION,RA_OF_ASC_NODE,ARG_OF_PERICENTER,MEAN_ANOMALY,BSTAR,MEAN_MOTION_DOT,MEAN_MOTION_DDOT,TLE_LINE0,TLE_LINE1,TLE_LINE2,SEMIMAJOR_AXIS,PERIOD,APOGEE,PERIGEE,DECAYED
51125.0,STARLINK-3387,PAYLOAD,2022-04-08 14:00:03,15.34567491,0.0001879,53.2177,245.2382,30.5525,0.6072,-0.022937,-0.00719385,0.0,0 STARLINK-3387,1 51125U 22005X   22098.58336806 -.00719385  00000-0 -22937-1 0  9992,2 51125  53.2177 245.2382 0001879  30.5525   0.6072 15.34567491  3667,6840.342,93.838,463.49300000000005,460.922,0.0
51125.0,STARLINK-3387,PAYLOAD,2022-04-08 22:00:00,15.34056138,0.0001583,53.2172,243.6804,40.6044,32.6253,-0.023202,-0.00716119,0.0,0 STARLINK-3387,1 51125U 22005X   22098.91667824 -.00716119  00000-0 -23202-1 0  9994,2 51125  53.2172 243.6804 0001583  40.6044  32.6253 15.34056138 13829,6841.861999999999,93.869,464.811,462.644,0.0
51125.0,STARLINK-3387,PAYLOAD,2022-04-09 14:00:01,15.33035308,0.0002086,53.2174,240.5664,32.5263,123.2623,-0.02395,-0.0071569999999999,0.0,0 STARLINK-3387,1 51125U 22005X   22099.58334491 -.00715700  00000-0 -23950-1 0  9994,2 51125  53.2174 240.5664 0002086  32.5263 123.2623 15.33035308  3667,6844.899,93.931,468.192,465.337,0.0
51125.0,STARLINK-3387,PAYLOAD,2022-04-09 22:00:00,15.32526906,0.0001647,53.2171,239.0119,48.845,147.3023,-0.024415,-0.00717716,0.0,0 STARLINK-3387,1 51125U 22005X   22099.91667824 -.00717716  00000-0 -24415-1 0  9996,2 51125  53.2171 239.0119 0001647  48.8450 147.3023 15.32526906 13987,6846.413000000001,93.962,469.406,467.151,0.0
51125.0,STARLINK-3387,PAYLOAD,2022-04-10 14:00:01,15.315053,0.0001957,53.2174,235.9054,34.9767,240.0525,-0.025107,-0.00714956,0.0,0 STARLINK-3387,1 51125U 22005X   22100.58334491 -.00714956  00000-0 -25107-1 0  9995,2 51125  53.2174 235.9054 0001957  34.9767 240.0525 15.31505300  3660,6849.456999999999,94.025,472.663,469.982,0.0
51125.0,STARLINK-3387,PAYLOAD,2022-04-10 22:00:00,15.30998339,0.0001450999999999,53.2171,234.3543,51.0519,262.4973,-0.025695,-0.00719698,0.0,0 STARLINK-3387,1 51125U 22005X   22100.91667824 -.00719698  00000-0 -25695-1 0  9991,2 51125  53.2171 234.3543 0001451  51.0519 262.4973 15.30998339  3670,6850.969,94.056,473.828,471.84,0.0
51125.0,STARLINK-3387,PAYLOAD,2022-04-11 04:00:01,15.3061262,0.0001764999999999,53.2174,233.1901,40.9187,211.1853,-0.025791,-0.00714221,0.0,0 STARLINK-3387,1 51125U 22005X   22101.16668981 -.00714221  00000-0 -25791-1 0  9998,2 51125  53.2174 233.1901 0001765  40.9187 211.1853 15.30612620 14175,6852.12,94.08,475.195,472.776,0.0
51125.0,STARLINK-3387,PAYLOAD,2022-04-11 14:00:01,15.29977183,0.0001878,53.2174,231.2552,31.7658,356.9884,-0.026455,-0.00717955,0.0,0 STARLINK-3387,1 51125U 22005X   22101.58334491 -.00717955  00000-0 -26455-1 0  9995,2 51125  53.2174 231.2552 0001878  31.7658 356.9884 15.29977183  3662,6854.017,94.119,477.17,474.595,0.0
51125.0,STARLINK-3387,PAYLOAD,2022-04-11 22:00:00,15.29466668,0.0001515,53.2171,229.7076,44.1733,21.2639,-0.026818,-0.00716431,0.0,0 STARLINK-3387,1 51125U 22005X   22101.91667824 -.00716431  00000-0 -26818-1 0  9992,2 51125  53.2171 229.7076 0001515  44.1733  21.2639 15.29466668  3663,6855.543000000002,94.15,478.446,476.369,0.0
51125.0,STARLINK-3387,PAYLOAD,2022-04-12 04:00:00,15.29082417,0.0001684,53.2173,228.5462,35.6699,326.8792,-0.027044,-0.00714136,0.0,0 STARLINK-3387,1 51125U 22005X   22102.16667824 -.00714136  00000-0 -27044-1 0  9992,2 51125  53.2173 228.5462 0001684  35.6699 326.8792 15.29082417 14329,6856.691,94.174,479.711,477.401,0.0
51125.0,STARLINK-3387,PAYLOAD,2022-04-12 14:00:01,15.28445939,0.0002112,53.2171,226.6159,31.3594,105.6061,-0.027661,-0.00724404,0.0,0 STARLINK-3387,1 51125U 22005X   22102.58334491 -.00724404  00000-0 -27661-1 0  9993,2 51125  53.2171 226.6159 0002112  31.3594 105.6061 15.28445939  3672,6858.594,94.213,481.908,479.011,0.0
51125.0,STARLINK-3387,PAYLOAD,2022-04-12 22:00:00,15.27936459,0.0001747,53.217,225.0716,43.798,128.0118,-0.028106,-0.00724562,0.0,0 STARLINK-3387,1 51125U 22005X   22102.91667824 -.00724562  00000-0 -28106-1 0  9999,2 51125  53.2170 225.0716 0001747  43.7980 128.0118 15.27936459  3664,6860.119000000002,94.245,483.182,480.785,0.0
51125.0,STARLINK-3387,PAYLOAD,2022-04-13 04:00:00,15.27552657,0.0001764,53.2173,223.9131,37.0758,70.4666,-0.028355,-0.00722574,0.0,0 STARLINK-3387,1 51125U 22005X   22103.16667824 -.00722574  00000-0 -28355-1 0  9994,2 51125  53.2173 223.9131 0001764  37.0758  70.4666 15.27552657 14487,6861.268,94.268,484.343,481.923,0.0
51125.0,STARLINK-3387,PAYLOAD,2022-04-13 14:00:03,15.26915005,0.0001994,53.2172,221.987,37.49800000000001,202.2907,-0.028912,-0.00722583,0.0,0 STARLINK-3387,1 51125U 22005X   22103.58336806 -.00722583  00000-0 -28912-1 0  9992,2 51125  53.2172 221.9870 0001994  37.4980 202.2907 15.26915005  3660,6863.178000000001,94.308,486.412,483.675,0.0
51125.0,STARLINK-3387,PAYLOAD,2022-04-13 22:00:00,15.26408221,0.0001636999999999,53.2171,220.4464,46.7338,225.9328,-0.029592,-0.00727832,0.0,0 STARLINK-3387,1 51125U 22005X   22103.91667824 -.00727832  00000-0 -29592-1 0  9993,2 51125  53.2171 220.4464 0001637  46.7338 225.9328 15.26408221  3662,6864.696999999999,94.339,487.686,485.43800000000016,0.0
51125.0,STARLINK-3387,PAYLOAD,2022-04-14 06:00:00,15.25895172,0.0001735,53.2173,218.9056,39.821,265.241,-0.029826,-0.00722631,0.0,0 STARLINK-3387,1 51125U 22005X   22104.25001157 -.00722631  00000-0 -29826-1 0  9994,2 51125  53.2173 218.9056 0001735  39.8210 265.2410 15.25895172 14647,6866.236,94.371,489.292,486.909,0.0
51125.0,STARLINK-3387,PAYLOAD,2022-04-14 14:00:01,15.25387144,0.0002013,53.2172,217.3693,30.6413,306.1996,-0.030427,-0.0072576,0.0,0 STARLINK-3387,1 51125U 22005X   22104.58334491 -.00725760  00000-0 -30427-1 0  9995,2 51125  53.2172 217.3693 0002013  30.6413 306.1996 15.25387144  3669,6867.76,94.402,491.008,488.24300000000005,0.0
51125.0,STARLINK-3387,PAYLOAD,2022-04-14 22:00:00,15.24877787,0.0001524,53.2172,215.8321,43.747,324.2618,-0.030945,-0.00726727,0.0,0 STARLINK-3387,1 51125U 22005X   22104.91667824 -.00726727  00000-0 -30945-1 0  9990,2 51125  53.2172 215.8321 0001524  43.7470 324.2618 15.24877787  3651,6869.2890000000025,94.434,492.201,490.108,0.0
51125.0,STARLINK-3387,PAYLOAD,2022-04-15 04:00:00,15.24491941,0.0001534,53.2173,214.6789,48.9526,252.0319,-0.031026,-0.00720649,0.0,0 STARLINK-3387,1 51125U 22005X   22105.16667824 -.00720649  00000-0 -31026-1 0  9996,2 51125  53.2173 214.6789 0001534  48.9526 252.0319 15.24491941 14783,6870.448,94.458,493.367,491.26,0.0
51125.0,STARLINK-3387,PAYLOAD,2022-04-15 13:42:07,15.249466,0.0002019,53.2148,212.8409,86.3103,273.8127,-0.01223,-0.00296918,0.0,0 STARLINK-3387,1 51125U 22005X   22105.57091588 -.00296918  00000-0 -12230-1 0  9992,2 51125  53.2148 212.8409 0002019  86.3103 273.8127 15.24946600 13728,6869.083000000001,94.43,492.335,489.561,0.0
51125.0,STARLINK-3387,PAYLOAD,2022-04-15 22:00:00,15.23346358,0.0001523,53.2172,211.2285,48.0571,49.7792,-0.032262,-0.00723852,0.0,0 STARLINK-3387,1 51125U 22005X   22105.91667824 -.00723852  00000-0 -32262-1 0  9991,2 51125  53.2172 211.2285 0001523  48.0571  49.7792 15.23346358  3644,6873.892,94.529,496.804,494.711,0.0
51125.0,STARLINK-3387,PAYLOAD,2022-04-16 04:00:00,15.22961875,0.000156,53.2172,210.078,41.4245,348.0085,-0.032484,-0.0072075,0.0,0 STARLINK-3387,1 51125U 22005X   22106.16667824 -.00720750  00000-0 -32484-1 0  9999,2 51125  53.2172 210.0780 0001560  41.4245 348.0085 15.22961875 14937,6875.049,94.553,497.987,495.842,0.0
51125.0,STARLINK-3387,PAYLOAD,2022-04-16 14:00:01,15.22326804,0.0001999,53.2172,208.1661,37.2138,117.4427,-0.033301,-0.00724823,0.0,0 STARLINK-3387,1 51125U 22005X   22106.58334491 -.00724823  00000-0 -33301-1 0  9990,2 51125  53.2172 208.1661 0001999  37.2138 117.4427 15.22326804  3666,6876.9609999999975,94.592,500.201,497.452,0.0
51125.0,STARLINK-3387,PAYLOAD,2022-04-16 22:00:01,15.21816609,0.0001626,53.2172,206.6355,51.25899999999999,130.9528,-0.033774,-0.00724094,0.0,0 STARLINK-3387,1 51125U 22005X   22106.91668981 -.00724094  00000-0 -33774-1 0  9995,2 51125  53.2172 206.6355 0001626  51.2590 130.9528 15.21816609  3651,6878.498000000001,94.624,501.482,499.245,0.0
51125.0,STARLINK-3387,PAYLOAD,2022-04-17 06:00:00,15.21306872,0.0001779,53.2173,205.1059,45.487,163.5398,-0.034272,-0.00723827,0.0,0 STARLINK-3387,1 51125U 22005X   22107.25001157 -.00723827  00000-0 -34272-1 0  9996,2 51125  53.2173 205.1059 0001779  45.4870 163.5398 15.21306872 15108,6880.035,94.655,503.124,500.676,0.0
51125.0,STARLINK-3387,PAYLOAD,2022-04-17 14:00:01,15.20795759,0.0002032,53.2173,203.5804,37.7118,197.5804,-0.034726,-0.00722579,0.0,0 STARLINK-3387,1 51125U 22005X   22107.58334491 -.00722579  00000-0 -34726-1 0  9999,2 51125  53.2173 203.5804 0002032  37.7118 197.5804 15.20795759  3662,6881.576,94.687,504.839,502.043,0.0
51125.0,STARLINK-3387,PAYLOAD,2022-04-17 22:00:00,15.20287773,0.0001614,53.2173,202.0534,50.4975,210.4472,-0.035433,-0.00726069,0.0,0 STARLINK-3387,1 51125U 22005X   22107.91667824 -.00726069  00000-0 -35433-1 0  9999,2 51125  53.2173 202.0534 0001614  50.4975 210.4472 15.20287773  3651,6883.109,94.719,506.085,503.86300000000006,0.0
51125.0,STARLINK-3387,PAYLOAD,2022-04-18 14:00:01,15.19266709,0.0001867,53.2174,199.0056,38.3478,272.0639,-0.036388,-0.00723894,0.0,0 STARLINK-3387,1 51125U 22005X   22108.58334491 -.00723894  00000-0 -36388-1 0  9997,2 51125  53.2174 199.0056 0001867  38.3478 272.0639 15.19266709 15307,6886.193,94.783,509.343,506.772,0.0
51125.0,STARLINK-3387,PAYLOAD,2022-04-18 22:00:00,15.18757999,0.0001583,53.2174,197.482,44.8639,289.3626,-0.037073,-0.0072646,0.0,0 STARLINK-3387,1 51125U 22005X   22108.91667824 -.00726460  00000-0 -37073-1 0  9997,2 51125  53.2174 197.4820 0001583  44.8639 289.3626 15.18757999  3640,6887.73,94.814,510.685,508.505,0.0
